STARLETTE               
1 07646U 75010A   24262.55219837 -.00000111  00000+0  26510-4 0  9993
2 07646  49.8224  97.4872 0205680 119.8916 242.2583 13.82332846506464
LAGEOS 1                
1 08820U 76039A   24261.13087576  .00000016  00000+0  00000+0 0  9990
2 08820 109.8602 320.7949 0044004  78.8934 300.5394  6.38665037872398
AJISAI (EGS)            
1 16908U 86061A   24261.89463267 -.00000068  00000+0  20843-3 0  9999
2 16908  50.0100 307.0473 0011237 358.4430  54.0635 12.44507488401031
COSMOS 1989 (ETALON 1)  
1 19751U 89001C   24261.41860626  .00000066  00000+0  00000+0 0  9999
2 19751  64.5960  94.0672 0023760 215.9111 311.1522  2.13156126277773
COSMOS 2024 (ETALON 2)  
1 20026U 89039C   24261.60070256 -.00000042  00000+0  00000+0 0  9995
2 20026  65.2934 332.4136 0019716 216.8001 138.1319  2.13204310274909
LAGEOS 2                
1 22195U 92070B   24262.32000318 -.00000009  00000+0  00000+0 0  9998
2 22195  52.6675 309.1569 0137505 268.3642 118.1217  6.47293634754390
STELLA                  
1 22824U 93061B   24262.54323993  .00000006  00000+0  21225-4 0  9992
2 22824  98.8692 310.2401 0005354 291.2734 221.8550 14.27434357614103
LARETS                  
1 27944U 03042F   24262.50182130  .00000335  00000+0  73996-4 0  9999
2 27944  98.3295  43.6188 0011481 219.9317 140.1041 14.63585185120304
LARES                   
1 38077U 12006A   24262.15169170 -.00000023  00000+0  96701-4 0  9992
2 38077  69.4904 300.3653 0011446 280.2996  79.6740 12.54931684577242
LARES-2                 
1 53105U 22080A   24262.14246249  .00000009  00000+0  00000+0 0  9991
2 53105  70.1350 163.8174 0004891 116.9436 243.1818  6.38965120 50961
